CCSDS_OMM_VERS = 2.0
CREATION_DATE  = 
ORIGINATOR     = 

OBJECT_NAME    = STARLINK-36864
OBJECT_ID      = 2026-041F
CENTER_NAME    = EARTH
REF_FRAME      = TEME
TIME_SYSTEM    = UTC
MEAN_ELEMENT_THEORY = SGP/SGP4

EPOCH          = 2026-03-08T14:00:01.999872
MEAN_MOTION    = 15.95505083
ECCENTRICITY   = .00005976
INCLINATION    = 53.1596
RA_OF_ASC_NODE = 67.9089
ARG_OF_PERICENTER = 70.7445
MEAN_ANOMALY   = 164.0765

EPHEMERIS_TYPE = 0
CLASSIFICATION_TYPE = U
NORAD_CAT_ID   = 68045
ELEMENT_SET_NO = 999
REV_AT_EPOCH   = 219
BSTAR          = -.36166246E-2
MEAN_MOTION_DOT = -.147444E-1
MEAN_MOTION_DDOT = .64209153E-3

CCSDS_OMM_VERS = 2.0
CREATION_DATE  = 
ORIGINATOR     = 

OBJECT_NAME    = STARLINK-36321
OBJECT_ID      = 2026-041G
CENTER_NAME    = EARTH
REF_FRAME      = TEME
TIME_SYSTEM    = UTC
MEAN_ELEMENT_THEORY = SGP/SGP4

EPOCH          = 2026-03-08T14:00:01.999872
MEAN_MOTION    = 15.95890084
ECCENTRICITY   = .00006377
INCLINATION    = 53.1598
RA_OF_ASC_NODE = 67.8970
ARG_OF_PERICENTER = 69.2177
MEAN_ANOMALY   = 171.2356

EPHEMERIS_TYPE = 0
CLASSIFICATION_TYPE = U
NORAD_CAT_ID   = 68046
ELEMENT_SET_NO = 999
REV_AT_EPOCH   = 219
BSTAR          = -.35058597E-2
MEAN_MOTION_DOT = -.1459614E-1
MEAN_MOTION_DDOT = .63281094E-3

CCSDS_OMM_VERS = 2.0
CREATION_DATE  = 
ORIGINATOR     = 

OBJECT_NAME    = STARLINK-36181
OBJECT_ID      = 2026-041H
CENTER_NAME    = EARTH
REF_FRAME      = TEME
TIME_SYSTEM    = UTC
MEAN_ELEMENT_THEORY = SGP/SGP4

EPOCH          = 2026-03-08T14:00:01.999872
MEAN_MOTION    = 15.95761770
ECCENTRICITY   = .00006642
INCLINATION    = 53.1599
RA_OF_ASC_NODE = 67.9013
ARG_OF_PERICENTER = 63.1454
MEAN_ANOMALY   = 175.3268

EPHEMERIS_TYPE = 0
CLASSIFICATION_TYPE = U
NORAD_CAT_ID   = 68047
ELEMENT_SET_NO = 999
REV_AT_EPOCH   = 207
BSTAR          = -.35601377E-2
MEAN_MOTION_DOT = -.1471768E-1
MEAN_MOTION_DDOT = .64164156E-3

CCSDS_OMM_VERS = 2.0
CREATION_DATE  = 
ORIGINATOR     = 

OBJECT_NAME    = STARLINK-36318
OBJECT_ID      = 2026-041J
CENTER_NAME    = EARTH
REF_FRAME      = TEME
TIME_SYSTEM    = UTC
MEAN_ELEMENT_THEORY = SGP/SGP4

EPOCH          = 2026-03-08T14:00:01.999872
MEAN_MOTION    = 15.96017196
ECCENTRICITY   = .00005267
INCLINATION    = 53.1597
RA_OF_ASC_NODE = 67.8935
ARG_OF_PERICENTER = 61.7879
MEAN_ANOMALY   = 180.4570

EPHEMERIS_TYPE = 0
CLASSIFICATION_TYPE = U
NORAD_CAT_ID   = 68048
ELEMENT_SET_NO = 999
REV_AT_EPOCH   = 219
BSTAR          = -.34844965E-2
MEAN_MOTION_DOT = -.1460754E-1
MEAN_MOTION_DDOT = .63454112E-3

CCSDS_OMM_VERS = 2.0
CREATION_DATE  = 
ORIGINATOR     = 

OBJECT_NAME    = STARLINK-36885
OBJECT_ID      = 2026-041K
CENTER_NAME    = EARTH
REF_FRAME      = TEME
TIME_SYSTEM    = UTC
MEAN_ELEMENT_THEORY = SGP/SGP4

EPOCH          = 2026-03-08T14:00:01.999872
MEAN_MOTION    = 15.96286996
ECCENTRICITY   = .00006409
INCLINATION    = 53.1596
RA_OF_ASC_NODE = 67.8846
ARG_OF_PERICENTER = 66.0967
MEAN_ANOMALY   = 180.3517

EPHEMERIS_TYPE = 0
CLASSIFICATION_TYPE = U
NORAD_CAT_ID   = 68049
ELEMENT_SET_NO = 999
REV_AT_EPOCH   = 219
BSTAR          = -.34166486E-2
MEAN_MOTION_DOT = -.1453629E-1
MEAN_MOTION_DDOT = .63063617E-3

CCSDS_OMM_VERS = 2.0
CREATION_DATE  = 
ORIGINATOR     = 

OBJECT_NAME    = STARLINK-36945
OBJECT_ID      = 2026-041L
CENTER_NAME    = EARTH
REF_FRAME      = TEME
TIME_SYSTEM    = UTC
MEAN_ELEMENT_THEORY = SGP/SGP4

EPOCH          = 2026-03-08T14:00:01.999872
MEAN_MOTION    = 15.96151608
ECCENTRICITY   = .00005549
INCLINATION    = 53.1596
RA_OF_ASC_NODE = 67.8889
ARG_OF_PERICENTER = 73.4122
MEAN_ANOMALY   = 170.9756

EPHEMERIS_TYPE = 0
CLASSIFICATION_TYPE = U
NORAD_CAT_ID   = 68050
ELEMENT_SET_NO = 999
REV_AT_EPOCH   = 219
BSTAR          = -.34480353E-2
MEAN_MOTION_DOT = -.1456149E-1
MEAN_MOTION_DDOT = .63175804E-3

CCSDS_OMM_VERS = 2.0
CREATION_DATE  = 
ORIGINATOR     = 

OBJECT_NAME    = STARLINK-35911
OBJECT_ID      = 2026-041M
CENTER_NAME    = EARTH
REF_FRAME      = TEME
TIME_SYSTEM    = UTC
MEAN_ELEMENT_THEORY = SGP/SGP4

EPOCH          = 2026-03-08T14:00:01.999872
MEAN_MOTION    = 15.96423302
ECCENTRICITY   = .00004911
INCLINATION    = 53.1596
RA_OF_ASC_NODE = 67.8804
ARG_OF_PERICENTER = 70.2802
MEAN_ANOMALY   = 178.3671

EPHEMERIS_TYPE = 0
CLASSIFICATION_TYPE = U
NORAD_CAT_ID   = 68051
ELEMENT_SET_NO = 999
REV_AT_EPOCH   = 215
BSTAR          = -.3392323E-2
MEAN_MOTION_DOT = -.1454048E-1
MEAN_MOTION_DDOT = .63185534E-3

CCSDS_OMM_VERS = 2.0
CREATION_DATE  = 
ORIGINATOR     = 

OBJECT_NAME    = STARLINK-35808
OBJECT_ID      = 2026-041N
CENTER_NAME    = EARTH
REF_FRAME      = TEME
TIME_SYSTEM    = UTC
MEAN_ELEMENT_THEORY = SGP/SGP4

EPOCH          = 2026-03-08T14:00:01.999872
MEAN_MOTION    = 15.96551959
ECCENTRICITY   = .00005876
INCLINATION    = 53.1593
RA_OF_ASC_NODE = 67.8759
ARG_OF_PERICENTER = 66.4584
MEAN_ANOMALY   = 184.1032

EPHEMERIS_TYPE = 0
CLASSIFICATION_TYPE = U
NORAD_CAT_ID   = 68052
ELEMENT_SET_NO = 999
REV_AT_EPOCH   = 215
BSTAR          = -.3348153E-2
MEAN_MOTION_DOT = -.1445375E-1
MEAN_MOTION_DDOT = .6258097E-3

CCSDS_OMM_VERS = 2.0
CREATION_DATE  = 
ORIGINATOR     = 

OBJECT_NAME    = STARLINK-36919
OBJECT_ID      = 2026-041P
CENTER_NAME    = EARTH
REF_FRAME      = TEME
TIME_SYSTEM    = UTC
MEAN_ELEMENT_THEORY = SGP/SGP4

EPOCH          = 2026-03-08T14:00:01.999872
MEAN_MOTION    = 15.96689621
ECCENTRICITY   = .00005033
INCLINATION    = 53.1595
RA_OF_ASC_NODE = 67.8717
ARG_OF_PERICENTER = 67.9351
MEAN_ANOMALY   = 184.7244

EPHEMERIS_TYPE = 0
CLASSIFICATION_TYPE = U
NORAD_CAT_ID   = 68053
ELEMENT_SET_NO = 999
REV_AT_EPOCH   = 219
BSTAR          = -.33463899E-2
MEAN_MOTION_DOT = -.1455416E-1
MEAN_MOTION_DDOT = .6346869E-3

CCSDS_OMM_VERS = 2.0
CREATION_DATE  = 
ORIGINATOR     = 

OBJECT_NAME    = STARLINK-36924
OBJECT_ID      = 2026-041Q
CENTER_NAME    = EARTH
REF_FRAME      = TEME
TIME_SYSTEM    = UTC
MEAN_ELEMENT_THEORY = SGP/SGP4

EPOCH          = 2026-03-08T14:00:01.999872
MEAN_MOTION    = 15.96938486
ECCENTRICITY   = .00005501
INCLINATION    = 53.1594
RA_OF_ASC_NODE = 67.8644
ARG_OF_PERICENTER = 66.4699
MEAN_ANOMALY   = 189.8662

EPHEMERIS_TYPE = 0
CLASSIFICATION_TYPE = U
NORAD_CAT_ID   = 68054
ELEMENT_SET_NO = 999
REV_AT_EPOCH   = 219
BSTAR          = -.32666451E-2
MEAN_MOTION_DOT = -.1440489E-1
MEAN_MOTION_DDOT = .62444006E-3

CCSDS_OMM_VERS = 2.0
CREATION_DATE  = 
ORIGINATOR     = 

OBJECT_NAME    = STARLINK-35998
OBJECT_ID      = 2026-041R
CENTER_NAME    = EARTH
REF_FRAME      = TEME
TIME_SYSTEM    = UTC
MEAN_ELEMENT_THEORY = SGP/SGP4

EPOCH          = 2026-03-08T14:00:01.999872
MEAN_MOTION    = 15.96809987
ECCENTRICITY   = .00005002
INCLINATION    = 53.1595
RA_OF_ASC_NODE = 67.8678
ARG_OF_PERICENTER = 68.1885
MEAN_ANOMALY   = 186.2319

EPHEMERIS_TYPE = 0
CLASSIFICATION_TYPE = U
NORAD_CAT_ID   = 68055
ELEMENT_SET_NO = 999
REV_AT_EPOCH   = 215
BSTAR          = -.32937806E-2
MEAN_MOTION_DOT = -.1442203E-1
MEAN_MOTION_DDOT = .62496621E-3

CCSDS_OMM_VERS = 2.0
CREATION_DATE  = 
ORIGINATOR     = 

OBJECT_NAME    = STARLINK-36845
OBJECT_ID      = 2026-041S
CENTER_NAME    = EARTH
REF_FRAME      = TEME
TIME_SYSTEM    = UTC
MEAN_ELEMENT_THEORY = SGP/SGP4

EPOCH          = 2026-03-08T14:00:01.999872
MEAN_MOTION    = 15.97065763
ECCENTRICITY   = .00004678
INCLINATION    = 53.1592
RA_OF_ASC_NODE = 67.8605
ARG_OF_PERICENTER = 65.1814
MEAN_ANOMALY   = 193.0170

EPHEMERIS_TYPE = 0
CLASSIFICATION_TYPE = U
NORAD_CAT_ID   = 68056
ELEMENT_SET_NO = 999
REV_AT_EPOCH   = 219
BSTAR          = -.32520653E-2
MEAN_MOTION_DOT = -.1444093E-1
MEAN_MOTION_DDOT = .62812989E-3

