STARLINK-36864          
1 68045U 26041F   26067.58335648 -.01474440  64209-3 -36166-2 0  9993
2 68045  53.1596  67.9089 0000597  70.7445 164.0765 15.95505083  2193
STARLINK-36321          
1 68046U 26041G   26067.58335648 -.01459614  63281-3 -35059-2 0  9999
2 68046  53.1598  67.8970 0000637  69.2177 171.2356 15.95890084  2198
STARLINK-36181          
1 68047U 26041H   26067.58335648 -.01471768  64164-3 -35601-2 0  9998
2 68047  53.1599  67.9013 0000664  63.1454 175.3268 15.95761770  2073
STARLINK-36318          
1 68048U 26041J   26067.58335648 -.01460754  63454-3 -34845-2 0  9992
2 68048  53.1597  67.8935 0000526  61.7879 180.4570 15.96017196  2199
STARLINK-36885          
1 68049U 26041K   26067.58335648 -.01453629  63064-3 -34166-2 0  9999
2 68049  53.1596  67.8846 0000640  66.0967 180.3517 15.96286996  2199
STARLINK-36945          
1 68050U 26041L   26067.58335648 -.01456149  63176-3 -34480-2 0  9994
2 68050  53.1596  67.8889 0000554  73.4122 170.9756 15.96151608  2198
STARLINK-35911          
1 68051U 26041M   26067.58335648 -.01454048  63186-3 -33923-2 0  9993
2 68051  53.1596  67.8804 0000491  70.2802 178.3671 15.96423302  2153
STARLINK-35808          
1 68052U 26041N   26067.58335648 -.01445375  62581-3 -33482-2 0  9995
2 68052  53.1593  67.8759 0000587  66.4584 184.1032 15.96551959  2156
STARLINK-36919          
1 68053U 26041P   26067.58335648 -.01455416  63469-3 -33464-2 0  9999
2 68053  53.1595  67.8717 0000503  67.9351 184.7244 15.96689621  2192
STARLINK-36924          
1 68054U 26041Q   26067.58335648 -.01440489  62444-3 -32666-2 0  9999
2 68054  53.1594  67.8644 0000550  66.4699 189.8662 15.96938486  2198
STARLINK-35998          
1 68055U 26041R   26067.58335648 -.01442203  62497-3 -32938-2 0  9996
2 68055  53.1595  67.8678 0000500  68.1885 186.2319 15.96809987  2157
STARLINK-36845          
1 68056U 26041S   26067.58335648 -.01444093  62813-3 -32521-2 0  9996
2 68056  53.1592  67.8605 0000467  65.1814 193.0170 15.97065763  2198
